NORAD_CAT_ID,OBJECT_NAME,OBJECT_TYPE,EPOCH,MEAN_MOTION,ECCENTRICITY,INCLINATION,RA_OF_ASC_NODE,ARG_OF_PERICENTER,MEAN_ANOMALY,BSTAR,MEAN_MOTION_DOT,MEAN_MOTION_DDOT,TLE_LINE0,TLE_LINE1,TLE_LINE2,SEMIMAJOR_AXIS,PERIOD,APOGEE,PERIGEE,DECAYED
53895.0,STARLINK-5032,PAYLOAD,2023-12-22 06:45:42,15.08839744,0.0001481,53.2194,353.1227,105.1025,255.0131,-4.1551e-05,-9.49e-06,0.0,0 STARLINK-5032,1 53895U 22119K   23356.28174566 -.00000949  00000-0 -41551-4 0  9997,2 53895  53.2194 353.1227 0001481 105.1025 255.0131 15.08839744 69648,6917.881,95.438,540.771,538.722,0.0
53895.0,STARLINK-5032,PAYLOAD,2023-12-23 06:36:29,15.08847945,0.0001654,53.2192,348.6565,111.2589,248.858,-3.5915e-05,-8.6e-06,0.0,0 STARLINK-5032,1 53895U 22119K   23357.27534021 -.00000860  00000-0 -35915-4 0  9992,2 53895  53.2192 348.6565 0001654 111.2589 248.8580 15.08847945 69375,6917.856,95.437,540.865,538.577,0.0
53895.0,STARLINK-5032,PAYLOAD,2023-12-23 22:30:21,15.08833593,0.0001471,53.2189,345.6867,94.3566,265.7594,4.4789e-05,4.25e-06,0.0,0 STARLINK-5032,1 53895U 22119K   23357.93774934  .00000425  00000-0  44789-4 0  9998,2 53895  53.2189 345.6867 0001471  94.3566 265.7594 15.08833593 69890,6917.9,95.438,540.783,538.747,0.0
53895.0,STARLINK-5032,PAYLOAD,2023-12-24 03:16:30,15.08834156,0.0001481,53.219,344.7949,100.5839,259.532,4.4604e-05,4.22e-06,0.0,0 STARLINK-5032,1 53895U 22119K   23358.13646940  .00000422  00000-0  44604-4 0  9999,2 53895  53.2190 344.7949 0001481 100.5839 259.5320 15.08834156 69509,6917.898,95.438,540.788,538.739,0.0
53895.0,STARLINK-5032,PAYLOAD,2023-12-24 06:27:17,15.08837099,0.0001739,53.2194,344.2004,119.5744,240.5422,2.0705e-05,4.1e-07,0.0,0 STARLINK-5032,1 53895U 22119K   23358.26894773  .00000041  00000-0  20705-4 0  9995,2 53895  53.2194 344.2004 0001739 119.5744 240.5422 15.08837099 69941,6917.889,95.438,540.957,538.551,0.0
53895.0,STARLINK-5032,PAYLOAD,2023-12-25 06:18:03,15.08847495,0.000156,53.2196,339.7402,103.0168,257.0998,5.383e-05,5.69e-06,0.0,0 STARLINK-5032,1 53895U 22119K   23359.26254494  .00000569  00000-0  53830-4 0  9996,2 53895  53.2196 339.7402 0001560 103.0168 257.0998 15.08847495 69676,6917.857,95.437,540.802,538.643,0.0
53895.0,STARLINK-5032,PAYLOAD,2023-12-26 02:58:05,15.08836501,0.0001784,53.2204,335.8742,111.0555,249.0628,4.1026e-05,3.65e-06,0.0,0 STARLINK-5032,1 53895U 22119K   23360.12367305  .00000365  00000-0  41026-4 0  9997,2 53895  53.2204 335.8742 0001784 111.0555 249.0628 15.08836501 69809,6917.891,95.438,540.99,538.522,0.0
53895.0,STARLINK-5032,PAYLOAD,2023-12-26 07:44:14,15.08838555,0.0001728,53.2201,334.9823,107.3352,252.7829,5.4613e-05,5.81e-06,0.0,0 STARLINK-5032,1 53895U 22119K   23360.32239231  .00000581  00000-0  54613-4 0  9991,2 53895  53.2201 334.9823 0001728 107.3352 252.7829 15.08838555 70253,6917.885,95.438,540.945,538.554,0.0
53895.0,STARLINK-5032,PAYLOAD,2023-12-27 07:35:00,15.0885186,0.0001709,53.2205,330.5145,74.1223,285.9958,0.00011589,1.557e-05,0.0,0 STARLINK-5032,1 53895U 22119K   23361.31598309  .00001557  00000-0  11589-3 0  9993,2 53895  53.2205 330.5145 0001709  74.1223 285.9958 15.08851860 69986,6917.844,95.437,540.891,538.527,0.0
53895.0,STARLINK-5032,PAYLOAD,2023-12-28 04:15:02,15.0883889,0.0001638,53.2199,326.648,87.4656,272.6524,1.101e-05,-1.13e-06,0.0,0 STARLINK-5032,1 53895U 22119K   23362.17711345 -.00000113  00000-0  11010-4 0  9993,2 53895  53.2199 326.6480 0001638  87.4656 272.6524 15.08838890 70111,6917.884,95.438,540.882,538.616,0.0
53895.0,STARLINK-5032,PAYLOAD,2023-12-28 21:44:16,15.08849538,0.0001592,53.2195,323.3848,107.5174,252.5992,-5.6092e-05,-1.181e-05,0.0,0 STARLINK-5032,1 53895U 22119K   23362.90574936 -.00001181  00000-0 -56092-4 0  9993,2 53895  53.2195 323.3848 0001592 107.5174 252.5992 15.08849538 70642,6917.851,95.437,540.818,538.615,0.0
53895.0,STARLINK-5032,PAYLOAD,2023-12-29 04:05:48,15.08854549,0.0002194,53.2192,322.1946,143.2789,216.8353,-2.2173e-05,-6.41e-06,0.0,0 STARLINK-5032,1 53895U 22119K   23363.17070077 -.00000641  00000-0 -22173-4 0  9993,2 53895  53.2192 322.1946 0002194 143.2789 216.8353 15.08854549 70263,6917.836,95.437,541.219,538.183,0.0
53895.0,STARLINK-5032,PAYLOAD,2023-12-29 07:16:34,15.0885484,0.0001452,53.2184,321.6001,101.774,258.3415,1.7552e-05,-9e-08,0.0,0 STARLINK-5032,1 53895U 22119K   23363.30318146 -.00000009  00000-0  17552-4 0  9992,2 53895  53.2184 321.6001 0001452 101.7740 258.3415 15.08854840 70705,6917.835,95.437,540.704,538.696,0.0
53895.0,STARLINK-5032,PAYLOAD,2023-12-30 03:56:36,15.08836841,0.0001434,53.2179,317.7292,102.0446,258.0707,3.249e-05,2.29e-06,0.0,0 STARLINK-5032,1 53895U 22119K   23364.16431272  .00000229  00000-0  32490-4 0  9994,2 53895  53.2179 317.7292 0001434 102.0446 258.0707 15.08836841 70414,6917.89,95.438,540.747,538.763,0.0
53895.0,STARLINK-5032,PAYLOAD,2023-12-30 21:25:51,15.08841232,0.0001416,53.2178,314.4581,103.9768,256.1381,-5.982e-05,-1.24e-05,0.0,0 STARLINK-5032,1 53895U 22119K   23364.89295490 -.00001240  00000-0 -59820-4 0  9996,2 53895  53.2178 314.4581 0001416 103.9768 256.1381 15.08841232 70940,6917.877,95.437,540.721,538.762,0.0
53895.0,STARLINK-5032,PAYLOAD,2023-12-31 06:58:09,15.08845387,0.0001354,53.2181,312.6796,97.4255,262.6891,4.1685e-05,3.76e-06,0.0,0 STARLINK-5032,1 53895U 22119K   23365.29038943  .00000376  00000-0  41685-4 0  9996,2 53895  53.2181 312.6796 0001354  97.4255 262.6891 15.08845387 70584,6917.864,95.437,540.666,538.792,0.0
53895.0,STARLINK-5032,PAYLOAD,2024-01-01 03:38:11,15.08832873,0.0001479,53.2183,308.8155,93.8499,266.2662,1.0971e-05,-1.13e-06,0.0,0 STARLINK-5032,1 53895U 22119K   24001.15152185 -.00000113  00000-0  10971-4 0  9998,2 53895  53.2183 308.8155 0001479  93.8499 266.2662 15.08832873 70717,6917.902,95.438,540.79,538.744,0.0
53895.0,STARLINK-5032,PAYLOAD,2024-01-01 06:48:57,15.08836107,0.0001452,53.2182,308.221,86.502,273.6138,3.9234e-05,3.36e-06,0.0,0 STARLINK-5032,1 53895U 22119K   24001.28400019  .00000336  00000-0  39234-4 0  9993,2 53895  53.2182 308.2210 0001452  86.5020 273.6138 15.08836107 71155,6917.892,95.438,540.762,538.753,0.0
53895.0,STARLINK-5032,PAYLOAD,2024-01-02 03:28:57,15.08852004,0.0001481,53.2186,304.3554,89.7034,270.4128,0.00013548,1.87e-05,0.0,0 STARLINK-5032,1 53895U 22119K   24002.14510770  .00001870  00000-0  13548-3 0  9998,2 53895  53.2186 304.3554 0001481  89.7034 270.4128 15.08852004 70864,6917.844,95.437,540.733,538.684,0.0
53895.0,STARLINK-5032,PAYLOAD,2024-01-02 05:04:20,15.08855852,0.0001527,53.2189,304.0574,94.1683,265.9483,0.00017058,2.429e-05,0.0,0 STARLINK-5032,1 53895U 22119K   24002.21134445  .00002429  00000-0  17058-3 0  9998,2 53895  53.2189 304.0574 0001527  94.1683 265.9483 15.08855852 71292,6917.832,95.437,540.753,538.641,0.0
53895.0,STARLINK-5032,PAYLOAD,2024-01-02 19:22:49,15.08837464,0.0001469,53.2181,301.3821,87.7518,272.3642,0.00012347,1.677e-05,0.0,0 STARLINK-5032,1 53895U 22119K   24002.80751758  .00001677  00000-0  12347-3 0  9995,2 53895  53.2181 301.3821 0001469  87.7518 272.3642 15.08837464 70960,6917.888,95.438,540.769,538.737,0.0
53895.0,STARLINK-5032,PAYLOAD,2024-01-03 04:55:08,15.0884402,0.0001333,53.2182,299.5974,89.5929,270.5216,0.00011866,1.601e-05,0.0,0 STARLINK-5032,1 53895U 22119K   24003.20495477  .00001601  00000-0  11866-3 0  9995,2 53895  53.2182 299.5974 0001333  89.5929 270.5216 15.08844020 71441,6917.868,95.437,540.655,538.811,0.0
53895.0,STARLINK-5032,PAYLOAD,2024-01-04 01:35:08,15.08840727,0.0001439,53.2173,295.7285,83.669,276.4466,-9.0436e-05,-1.727e-05,0.0,0 STARLINK-5032,1 53895U 22119K   24004.06607536 -.00001727  00000-0 -90436-4 0  9993,2 53895  53.2173 295.7285 0001439  83.6690 276.4466 15.08840727 71151,6917.878,95.438,540.739,538.748,0.0
53895.0,STARLINK-5032,PAYLOAD,2024-01-04 19:04:23,15.08844208,0.0001366,53.2168,292.4565,118.038,242.0751,8.7006e-05,1.097e-05,0.0,0 STARLINK-5032,1 53895U 22119K   24004.79471232  .00001097  00000-0  87006-4 0  9992,2 53895  53.2168 292.4565 0001366 118.0380 242.0751 15.08844208 71680,6917.868,95.437,540.678,538.788,0.0
53895.0,STARLINK-5032,PAYLOAD,2024-01-05 01:25:55,15.08849042,0.0001319,53.2167,291.2709,91.7628,268.3515,0.00023144,3.398e-05,0.0,0 STARLINK-5032,1 53895U 22119K   24005.05967142  .00003398  00000-0  23144-3 0  9990,2 53895  53.2167 291.2709 0001319  91.7628 268.3515 15.08849042 71305,6917.853,95.437,540.63,538.805,0.0
53895.0,STARLINK-5032,PAYLOAD,2024-01-05 18:55:10,15.08841457,0.0001546,53.2175,288.0035,67.0903,293.0252,6.6748e-05,7.74e-06,0.0,0 STARLINK-5032,1 53895U 22119K   24005.78831801  .00000774  00000-0  66748-4 0  9995,2 53895  53.2175 288.0035 0001546  67.0903 293.0252 15.08841457 71411,6917.876,95.437,540.81,538.671,0.0
53895.0,STARLINK-5032,PAYLOAD,2024-01-05 22:05:56,15.0883872,0.0001269,53.2173,287.4063,87.2812,272.8326,3.5405e-05,2.76e-06,0.0,0 STARLINK-5032,1 53895U 22119K   24005.92079799  .00000276  00000-0  35405-4 0  9994,2 53895  53.2173 287.4063 0001269  87.2812 272.8326 15.08838720 71852,6917.884,95.438,540.627,538.871,0.0
53895.0,STARLINK-5032,PAYLOAD,2024-01-06 04:27:29,15.0884144,0.0001478,53.2175,286.2163,86.7846,273.3315,8.5528e-05,1.074e-05,0.0,0 STARLINK-5032,1 53895U 22119K   24006.18575715  .00001074  00000-0  85528-4 0  9990,2 53895  53.2175 286.2163 0001478  86.7846 273.3315 15.08841440 71896,6917.876,95.437,540.763,538.719,0.0
53895.0,STARLINK-5032,PAYLOAD,2024-01-06 21:56:44,15.0883687,0.0001507,53.2171,282.9432,104.6183,255.4976,-6.6825e-05,-1.351e-05,0.0,0 STARLINK-5032,1 53895U 22119K   24006.91439972 -.00001351  00000-0 -66825-4 0  9994,2 53895  53.2171 282.9432 0001507 104.6183 255.4976 15.08836870 72000,6917.89,95.438,540.797,538.712,0.0
53895.0,STARLINK-5032,PAYLOAD,2024-01-06 23:32:07,15.0883739,0.0001497,53.2173,282.646,100.6352,259.4809,-5.785e-05,-1.208e-05,0.0,0 STARLINK-5032,1 53895U 22119K   24006.98063974 -.00001208  00000-0 -57850-4 0  9995,2 53895  53.2173 282.6460 0001497 100.6352 259.4809 15.08837390 71592,6917.888,95.438,540.789,538.718,0.0
